{"type": "FeatureCollection", "features": [ {"type": "Feature", "properties": {"norad_id": 37528, "name": "COSMOS 2251 DEB", "group": "cosmos-2251-debris", "lat": -6.0425883268707, "lon": 126.82659657700712, "alt_km": 723.9825221419542, "timestamp": "2025-12-09T07:41:33.609539+00:00", "meta": {"OBJECT_NAME": "COSMOS 2251 DEB", "OBJECT_ID": "1993-036BNH", "EPOCH": "2025-12-08T16:49:26.649696", "MEAN_MOTION": 14.50498376, "ECCENTRICITY": 0.00210456, "INCLINATION": 74.0372, "RA_OF_ASC_NODE": 129.7266, "ARG_OF_PERICENTER": 278.202, "MEAN_ANOMALY": 81.6753, "EPHEMERIS_TYPE": 0, "CLASSIFICATION_TYPE": "U", "NORAD_CAT_ID": 37528, "ELEMENT_SET_NO": 999, "REV_AT_EPOCH": 85872, "BSTAR": 0.00091460645, "MEAN_MOTION_DOT": 3.563e-05, "MEAN_MOTION_DDOT": 0}, "tle": {"line1": "1 37528U 93036BNH 25342.70100289  .00003563  00000+0  91461-3 0  9999", "line2": "2 37528  74.0372 129.7266 0021045 278.2020  81.6753 14.50498376858723"}}, "geometry": {"type": "Point", "coordinates": [126.82659657700712, -6.0425883268707]}}, {"type": "Feature", "properties": {"norad_id": 37530, "name": "COSMOS 2251 DEB", "group": "cosmos-2251-debris", "lat": 71.49100610207826, "lon": 101.14170161037377, "alt_km": 759.1530610325144, "timestamp": "2025-12-09T07:41:33.609551+00:00", "meta": {"OBJECT_NAME": "COSMOS 2251 DEB", "OBJECT_ID": "1993-036BNK", "EPOCH": "2025-11-30T19:50:14.646624", "MEAN_MOTION": 14.34478642, "ECCENTRICITY": 0.00255427, "INCLINATION": 74.0356, "RA_OF_ASC_NODE": 355.4602, "ARG_OF_PERICENTER": 61.4891, "MEAN_ANOMALY": 111.2815, "EPHEMERIS_TYPE": 0, "CLASSIFICATION_TYPE": "U", "NORAD_CAT_ID": 37530, "ELEMENT_SET_NO": 999, "REV_AT_EPOCH": 85061, "BSTAR": 0.00021143929, "MEAN_MOTION_DOT": 5.72e-06, "MEAN_MOTION_DDOT": 0}, "tle": {"line1": "1 37530U 93036BNK 25334.82655841  .00000572  00000+0  21144-3 0  9993", "line2": "2 37530  74.0356 355.4602 0025542  61.4891 111.2815 14.34478642850619"}}, "geometry": {"type": "Point", "coordinates": [101.14170161037377, 71.49100610207826]}}, {"type": "Feature", "properties": {"norad_id": 37532, "name": "COSMOS 2251 DEB", "group": "cosmos-2251-debris", "lat": 35.9002713381628, "lon": 30.11109603249301, "alt_km": 759.0323142943907, "timestamp": "2025-12-09T07:41:33.609563+00:00", "meta": {"OBJECT_NAME": "COSMOS 2251 DEB", "OBJECT_ID": "1993-036BNM", "EPOCH": "2025-12-07T10:55:32.240064", "MEAN_MOTION": 14.42395579, "ECCENTRICITY": 0.00158251, "INCLINATION": 74.0509, "RA_OF_ASC_NODE": 225.5137, "ARG_OF_PERICENTER": 327.0165, "MEAN_ANOMALY": 213.451, "EPHEMERIS_TYPE": 0, "CLASSIFICATION_TYPE": "U", "NORAD_CAT_ID": 37532, "ELEMENT_SET_NO": 999, "REV_AT_EPOCH": 84839, "BSTAR": 0.00041437252, "MEAN_MOTION_DOT": 1.346e-05, "MEAN_MOTION_DDOT": 0}, "tle": {"line1": "1 37532U 93036BNM 25341.45523426  .00001346  00000+0  41437-3 0  9992", "line2": "2 37532  74.0509 225.5137 0015825 327.0165 213.4510 14.42395579848394"}}, "geometry": {"type": "Point", "coordinates": [30.11109603249301, 35.9002713381628]}}, {"type": "Feature", "properties": {"norad_id": 37533, "name": "COSMOS 2251 DEB", "group": "cosmos-2251-debris", "lat": -61.40030425872338, "lon": 49.42387435370764, "alt_km": 745.9483230732922, "timestamp": "2025-12-09T07:41:33.609576+00:00", "meta": {"OBJECT_NAME": "COSMOS 2251 DEB", "OBJECT_ID": "1993-036BNN", "EPOCH": "2025-12-08T06:43:08.752224", "MEAN_MOTION": 14.1213434, "ECCENTRICITY": 0.0158188, "INCLINATION": 74.0696, "RA_OF_ASC_NODE": 199.6661, "ARG_OF_PERICENTER": 257.3146, "MEAN_ANOMALY": 101.0271, "EPHEMERIS_TYPE": 0, "CLASSIFICATION_TYPE": "U", "NORAD_CAT_ID": 37533, "ELEMENT_SET_NO": 999, "REV_AT_EPOCH": 62858, "BSTAR": 0.0019209646, "MEAN_MOTION_DOT": 3.943e-05, "MEAN_MOTION_DDOT": 0}, "tle": {"line1": "1 37533U 93036BNN 25342.27996241  .00003943  00000+0  19210-2 0  9991", "line2": "2 37533  74.0696 199.6661 0158188 257.3146 101.0271 14.12134340628586"}}, "geometry": {"type": "Point", "coordinates": [49.42387435370764, -61.40030425872338]}}, {"type": "Feature", "properties": {"norad_id": 37535, "name": "COSMOS 2251 DEB", "group": "cosmos-2251-debris", "lat": -39.018790076383354, "lon": 66.59111327724308, "alt_km": 707.7662047831636, "timestamp": "2025-12-09T07:41:33.609587+00:00", "meta": {"OBJECT_NAME": "COSMOS 2251 DEB", "OBJECT_ID": "1993-036BNQ", "EPOCH": "2025-12-08T17:45:49.780800", "MEAN_MOTION": 14.58410519, "ECCENTRICITY": 0.00279412, "INCLINATION": 74.0241, "RA_OF_ASC_NODE": 81.1193, "ARG_OF_PERICENTER": 220.4818, "MEAN_ANOMALY": 292.5311, "EPHEMERIS_TYPE": 0, "CLASSIFICATION_TYPE": "U", "NORAD_CAT_ID": 37535, "ELEMENT_SET_NO": 999, "REV_AT_EPOCH": 85266, "BSTAR": 0.0014114603, "MEAN_MOTION_DOT": 6.555e-05, "MEAN_MOTION_DDOT": 0}, "tle": {"line1": "1 37535U 93036BNQ 25342.74015950  .00006555  00000+0  14115-2 0  9995", "line2": "2 37535  74.0241  81.1193 0027941 220.4818 292.5311 14.58410519852662"}}, "geometry": {"type": "Point", "coordinates": [66.59111327724308, -39.018790076383354]}}, {"type": "Feature", "properties": {"norad_id": 37537, "name": "COSMOS 2251 DEB", "group": "cosmos-2251-debris", "lat": 44.90161409550911, "lon": -71.96679592561024, "alt_km": 726.9799058072613, "timestamp": "2025-12-09T07:41:33.609598+00:00", "meta": {"OBJECT_NAME": "COSMOS 2251 DEB", "OBJECT_ID": "1993-036BNS", "EPOCH": "2025-12-04T13:53:52.711584", "MEAN_MOTION": 14.3747249, "ECCENTRICITY": 0.0050092, "INCLINATION": 74.012, "RA_OF_ASC_NODE": 280.1661, "ARG_OF_PERICENTER": 62.5345, "MEAN_ANOMALY": 298.0888, "EPHEMERIS_TYPE": 0, "CLASSIFICATION_TYPE": "U", "NORAD_CAT_ID": 37537, "ELEMENT_SET_NO": 999, "REV_AT_EPOCH": 84916, "BSTAR": 0.00043114, "MEAN_MOTION_DOT": 1.283e-05, "MEAN_MOTION_DDOT": 0}, "tle": {"line1": "1 37537U 93036BNS 25338.57908231  .00001283  00000+0  43114-3 0  9991", "line2": "2 37537  74.0120 280.1661 0050092  62.5345 298.0888 14.37472490849168"}}, "geometry": {"type": "Point", "coordinates": [-71.96679592561024, 44.90161409550911]}}, {"type": "Feature", "properties": {"norad_id": 37546, "name": "COSMOS 2251 DEB", "group": "cosmos-2251-debris", "lat": -40.10406501073953, "lon": 90.78561349106525, "alt_km": 638.8047523512705, "timestamp": "2025-12-09T07:41:33.609608+00:00", "meta": {"OBJECT_NAME": "COSMOS 2251 DEB", "OBJECT_ID": "1993-036BPB", "EPOCH": "2025-12-07T02:21:17.919648", "MEAN_MOTION": 14.80155071, "ECCENTRICITY": 0.00062314, "INCLINATION": 74.021, "RA_OF_ASC_NODE": 109.1315, "ARG_OF_PERICENTER": 130.3601, "MEAN_ANOMALY": 229.812, "EPHEMERIS_TYPE": 0, "CLASSIFICATION_TYPE": "U", "NORAD_CAT_ID": 37546, "ELEMENT_SET_NO": 999, "REV_AT_EPOCH": 65804, "BSTAR": 0.0044829614, "MEAN_MOTION_DOT": 0.00034195, "MEAN_MOTION_DDOT": 0}, "tle": {"line1": "1 37546U 93036BPB 25341.09812407  .00034195  00000+0  44830-2 0  9994", "line2": "2 37546  74.0210 109.1315 0006231 130.3601 229.8120 14.80155071658046"}}, "geometry": {"type": "Point", "coordinates": [90.78561349106525, -40.10406501073953]}}, {"type": "Feature", "properties": {"norad_id": 37959, "name": "COSMOS 2251 DEB", "group": "cosmos-2251-debris", "lat": 61.080742936421466, "lon": 94.72396193630485, "alt_km": 725.0243271805284, "timestamp": "2025-12-09T07:41:33.609619+00:00", "meta": {"OBJECT_NAME": "COSMOS 2251 DEB", "OBJECT_ID": "1993-036BPJ", "EPOCH": "2025-12-08T23:58:46.136640", "MEAN_MOTION": 14.58104698, "ECCENTRICITY": 0.00580895, "INCLINATION": 74.0114, "RA_OF_ASC_NODE": 64.0723, "ARG_OF_PERICENTER": 207.6848, "MEAN_ANOMALY": 332.0544, "EPHEMERIS_TYPE": 0, "CLASSIFICATION_TYPE": "U", "NORAD_CAT_ID": 37959, "ELEMENT_SET_NO": 999, "REV_AT_EPOCH": 80072, "BSTAR": 0.001016448, "MEAN_MOTION_DOT": 4.763e-05, "MEAN_MOTION_DDOT": 0}, "tle": {"line1": "1 37959U 93036BPJ 25342.99914510  .00004763  00000+0  10164-2 0  9991", "line2": "2 37959  74.0114  64.0723 0058089 207.6848 332.0544 14.58104698800723"}}, "geometry": {"type": "Point", "coordinates": [94.72396193630485, 61.080742936421466]}}, {"type": "Feature", "properties": {"norad_id": 37960, "name": "COSMOS 2251 DEB", "group": "cosmos-2251-debris", "lat": -2.169599433439083, "lon": 13.505895458588538, "alt_km": 712.5756530835988, "timestamp": "2025-12-09T07:41:33.609629+00:00", "meta": {"OBJECT_NAME": "COSMOS 2251 DEB", "OBJECT_ID": "1993-036BPK", "EPOCH": "2025-12-08T13:45:42.939360", "MEAN_MOTION": 14.07839084, "ECCENTRICITY": 0.024919, "INCLINATION": 74.0588, "RA_OF_ASC_NODE": 194.1944, "ARG_OF_PERICENTER": 213.9073, "MEAN_ANOMALY": 144.5924, "EPHEMERIS_TYPE": 0, "CLASSIFICATION_TYPE": "U", "NORAD_CAT_ID": 37960, "ELEMENT_SET_NO": 999, "REV_AT_EPOCH": 77347, "BSTAR": 0.0013227, "MEAN_MOTION_DOT": 2.955e-05, "MEAN_MOTION_DDOT": 0}, "tle": {"line1": "1 37960U 93036BPK 25342.57341365  .00002955  00000+0  13227-2 0  9993", "line2": "2 37960  74.0588 194.1944 0249190 213.9073 144.5924 14.07839084773472"}}, "geometry": {"type": "Point", "coordinates": [13.505895458588538, -2.169599433439083]}}, {"type": "Feature", "properties": {"norad_id": 37961, "name": "COSMOS 2251 DEB", "group": "cosmos-2251-debris", "lat": 45.94502779307816, "lon": -53.591302439588965, "alt_km": 696.8657749573804, "timestamp": "2025-12-09T07:41:33.609640+00:00", "meta": {"OBJECT_NAME": "COSMOS 2251 DEB", "OBJECT_ID": "1993-036BPL", "EPOCH": "2025-12-01T04:44:47.787648", "MEAN_MOTION": 14.57792656, "ECCENTRICITY": 0.0041244, "INCLINATION": 74.04, "RA_OF_ASC_NODE": 159.049, "ARG_OF_PERICENTER": 241.5465, "MEAN_ANOMALY": 118.1542, "EPHEMERIS_TYPE": 0, "CLASSIFICATION_TYPE": "U", "NORAD_CAT_ID": 37961, "ELEMENT_SET_NO": 999, "REV_AT_EPOCH": 79897, "BSTAR": 0.001072, "MEAN_MOTION_DOT": 4.934e-05, "MEAN_MOTION_DDOT": 0}, "tle": {"line1": "1 37961U 93036BPL 25335.19777532  .00004934  00000+0  10720-2 0  9997", "line2": "2 37961  74.0400 159.0490 0041244 241.5465 118.1542 14.57792656798977"}}, "geometry": {"type": "Point", "coordinates": [-53.591302439588965, 45.94502779307816]}}]}